NORAD_CAT_ID,OBJECT_NAME,OBJECT_TYPE,EPOCH,MEAN_MOTION,ECCENTRICITY,INCLINATION,RA_OF_ASC_NODE,ARG_OF_PERICENTER,MEAN_ANOMALY,BSTAR,MEAN_MOTION_DOT,MEAN_MOTION_DDOT,TLE_LINE0,TLE_LINE1,TLE_LINE2,SEMIMAJOR_AXIS,PERIOD,APOGEE,PERIGEE,DECAYED
50194.0,STARLINK-3269,PAYLOAD,2022-05-16 06:00:02,15.08842686,0.0001603,53.2159,14.5105,46.1879,204.6764,-0.001187,-0.00019131,0.0,0 STARLINK-3269,1 50194U 21125AQ  22136.25002315 -.00019131  00000-0 -11870-2 0  9998,2 50194  53.2159  14.5105 0001603  46.1879 204.6764 15.08842686 25898,6917.871999999999,95.437,540.846,538.628,0.0
50194.0,STARLINK-3269,PAYLOAD,2022-05-16 14:00:01,15.08808527,0.0001546,53.2162,13.0126,54.4284,207.97,0.0019667,0.00031124,0.0,0 STARLINK-3269,1 50194U 21125AQ  22136.58334491  .00031124  00000-0  19667-2 0  9993,2 50194  53.2162  13.0126 0001546  54.4284 207.9700 15.08808527  1309,6917.977,95.44,540.911,538.7719999999998,0.0
50194.0,STARLINK-3269,PAYLOAD,2022-05-16 22:00:00,15.08831625,0.0001730999999999,53.2162,11.5179,50.8356,223.1387,0.00031518,4.73e-05,0.0,0 STARLINK-3269,1 50194U 21125AQ  22136.91667824  .00004730  00000-0  31518-3 0  9992,2 50194  53.2162  11.5179 0001731  50.8356 223.1387 15.08831625  1302,6917.906,95.438,540.9680000000002,538.573,0.0
50194.0,STARLINK-3269,PAYLOAD,2022-05-17 06:00:00,15.08867419,0.0001733,53.216,10.0212,50.28,235.2771,-0.0037102,-0.00058898,0.0,0 STARLINK-3269,1 50194U 21125AQ  22137.25001157 -.00058898  00000-0 -37102-2 0  9991,2 50194  53.2160  10.0212 0001733  50.2800 235.2771 15.08867419 26041,6917.797,95.436,540.86,538.4630000000002,0.0
50194.0,STARLINK-3269,PAYLOAD,2022-05-17 14:00:01,15.08814725,0.0001665,53.2162,8.5232,58.5766,238.6502,0.0033576,0.00053517,0.0,0 STARLINK-3269,1 50194U 21125AQ  22137.58335648  .00053517  00000-0  33576-2 0  9994,2 50194  53.2162   8.5232 0001665  58.5766 238.6502 15.08814725  1306,6917.958000000001,95.439,540.974,538.6709999999998,0.0
50194.0,STARLINK-3269,PAYLOAD,2022-05-17 20:00:01,15.0886599,0.0001713,53.2163,7.4023,54.292,161.5579,-0.0033008,-0.00052476,0.0,0 STARLINK-3269,1 50194U 21125AQ  22137.83334491 -.00052476  00000-0 -33008-2 0  9992,2 50194  53.2163   7.4023 0001713  54.2920 161.5579 15.08865990 26138,6917.801,95.436,540.851,538.481,0.0
50194.0,STARLINK-3269,PAYLOAD,2022-05-17 22:00:01,15.08852529,0.0001758,53.2162,7.0285,52.0778,256.7406,-0.0022833,-0.00036456,0.0,0 STARLINK-3269,1 50194U 21125AQ  22137.91668981 -.00036456  00000-0 -22833-2 0  9999,2 50194  53.2162   7.0285 0001758  52.0778 256.7406 15.08852529  1301,6917.842,95.437,540.923,538.491,0.0
50194.0,STARLINK-3269,PAYLOAD,2022-05-18 06:00:00,15.088545800000002,0.0001667,53.2158,5.5316,50.2652,270.086,-0.00078969,-0.00012839,0.0,0 STARLINK-3269,1 50194U 21125AQ  22138.25001157 -.00012839  00000-0 -78969-3 0  9994,2 50194  53.2158   5.5316 0001667  50.2652 270.0860 15.08854580 26190,6917.8359999999975,95.437,540.854,538.548,0.0
50194.0,STARLINK-3269,PAYLOAD,2022-05-18 14:00:01,15.08849439,0.0001585999999999,53.2161,4.0338,58.3951,273.5658,0.00043877,6.704e-05,0.0,0 STARLINK-3269,1 50194U 21125AQ  22138.58334491  .00006704  00000-0  43877-3 0  9992,2 50194  53.2161   4.0338 0001586  58.3951 273.5658 15.08849439  1309,6917.852,95.437,540.814,538.619,0.0
50194.0,STARLINK-3269,PAYLOAD,2022-05-18 20:00:01,15.08860569,0.0001694,53.216,2.9129,54.9342,195.7308,-0.002664,-0.0004246,0.0,0 STARLINK-3269,1 50194U 21125AQ  22138.83334491 -.00042460  00000-0 -26640-2 0  9999,2 50194  53.2160   2.9129 0001694  54.9342 195.7308 15.08860569  1303,6917.818,95.436,540.854,538.511,0.0
50194.0,STARLINK-3269,PAYLOAD,2022-05-19 14:00:01,15.08803786,0.0001635,53.2157,359.5444,61.3171,305.4841,0.0030621,0.00048734,0.0,0 STARLINK-3269,1 50194U 21125AQ  22139.58335648  .00048734  00000-0  30621-2 0  9999,2 50194  53.2157 359.5444 0001635  61.3171 305.4841 15.08803786  1307,6917.991,95.44,540.987,538.725,0.0
50194.0,STARLINK-3269,PAYLOAD,2022-05-19 22:00:00,15.08841021,0.0001754999999999,53.2156,358.0499,54.4188,323.8964,-0.00077745,-0.0001264,0.0,0 STARLINK-3269,1 50194U 21125AQ  22139.91667824 -.00012640  00000-0 -77745-3 0  9998,2 50194  53.2156 358.0499 0001755  54.4188 323.8964 15.08841021 26451,6917.877,95.437,540.956,538.528,0.0
50194.0,STARLINK-3269,PAYLOAD,2022-05-20 14:00:01,15.08824507,0.0001633,53.2155,355.0547,61.0789,340.4303,0.00057881,8.932e-05,0.0,0 STARLINK-3269,1 50194U 21125AQ  22140.58334491  .00008932  00000-0  57881-3 0  9990,2 50194  53.2155 355.0547 0001633  61.0789 340.4303 15.08824507  1306,6917.928000000001,95.439,540.922,538.663,0.0
50194.0,STARLINK-3269,PAYLOAD,2022-05-20 22:00:00,15.08818335,0.0001811,53.2153,353.5606,55.3978,357.6896,0.0012636,0.00019868,0.0,0 STARLINK-3269,1 50194U 21125AQ  22140.91667824  .00019868  00000-0  12636-2 0  9994,2 50194  53.2153 353.5606 0001811  55.3978 357.6896 15.08818335 26606,6917.946999999999,95.439,541.064,538.559,0.0
50194.0,STARLINK-3269,PAYLOAD,2022-05-21 06:00:00,15.08866815,0.0001696999999999,53.2151,352.0631,54.2917,10.3709,-0.0037743,-0.00059901,0.0,0 STARLINK-3269,1 50194U 21125AQ  22141.25001157 -.00059901  00000-0 -37743-2 0  9993,2 50194  53.2151 352.0631 0001697  54.2917  10.3709 15.08866815  1301,6917.7980000000025,95.436,540.837,538.489,0.0
50194.0,STARLINK-3269,PAYLOAD,2022-05-21 14:00:01,15.0882386,0.0001582,53.2153,350.5658,58.7488,17.5832,0.0024907,0.00039557,0.0,0 STARLINK-3269,1 50194U 21125AQ  22141.58335648  .00039557  00000-0  24907-2 0  9995,2 50194  53.2153 350.5658 0001582  58.7488  17.5832 15.08823860  1309,6917.93,95.439,540.889,538.7,0.0
50194.0,STARLINK-3269,PAYLOAD,2022-05-21 22:00:00,15.08849026,0.0001703,53.2154,349.0713,50.6926,37.173,-0.001317,-0.00021192,0.0,0 STARLINK-3269,1 50194U 21125AQ  22141.91667824 -.00021192  00000-0 -13170-2 0  9994,2 50194  53.2154 349.0713 0001703  50.6926  37.1730 15.08849026  1305,6917.853,95.437,540.896,538.54,0.0
50194.0,STARLINK-3269,PAYLOAD,2022-05-22 06:00:00,15.08856128,0.0001606,53.2153,347.5737,49.854,49.6028,-0.0019281,-0.00030856,0.0,0 STARLINK-3269,1 50194U 21125AQ  22142.25001157 -.00030856  00000-0 -19281-2 0  9999,2 50194  53.2153 347.5737 0001606  49.8540  49.6028 15.08856128 26808,6917.831,95.437,540.807,538.585,0.0
50194.0,STARLINK-3269,PAYLOAD,2022-05-22 14:00:01,15.08834877,0.0001613,53.2156,346.0766,56.3524,54.7019,0.0003368,5.075e-05,0.0,0 STARLINK-3269,1 50194U 21125AQ  22142.58334491  .00005075  00000-0  33680-3 0  9998,2 50194  53.2156 346.0766 0001613  56.3524  54.7019 15.08834877  1302,6917.896,95.438,540.877,538.645,0.0
50194.0,STARLINK-3269,PAYLOAD,2022-05-22 22:00:01,15.08817237,0.0001747,53.2157,344.582,48.7345,73.9844,0.0011214,0.00017593,0.0,0 STARLINK-3269,1 50194U 21125AQ  22142.91668981  .00017593  00000-0  11214-2 0  9995,2 50194  53.2157 344.5820 0001747  48.7345  73.9844 15.08817237 26904,6917.95,95.439,541.024,538.606,0.0
50194.0,STARLINK-3269,PAYLOAD,2022-05-23 14:00:01,15.08865404,0.0001598,53.2168,341.5862,53.3104,92.4997,-0.006275,-0.00098856,0.0,0 STARLINK-3269,1 50194U 21125AQ  22143.58334491 -.00098856  00000-0 -62750-2 0  9999,2 50194  53.2168 341.5862 0001598  53.3104  92.4997 15.08865404  1309,6917.803000000001,95.436,540.773,538.562,0.0
50194.0,STARLINK-3269,PAYLOAD,2022-05-23 22:00:01,15.08827693,0.0001727,53.216,340.0929,45.2384,112.2588,0.0015611,0.00024636,0.0,0 STARLINK-3269,1 50194U 21125AQ  22143.91668981  .00024636  00000-0  15611-2 0  9997,2 50194  53.2160 340.0929 0001727  45.2384 112.2588 15.08827693  1308,6917.918000000002,95.438,540.9780000000002,538.5880000000002,0.0
50194.0,STARLINK-3269,PAYLOAD,2022-05-24 06:00:02,15.08864071,0.0001615,53.216,338.5952,47.197,121.887,-0.0020312,-0.00032491,0.0,0 STARLINK-3269,1 50194U 21125AQ  22144.25002315 -.00032491  00000-0 -20312-2 0  9992,2 50194  53.2160 338.5952 0001615  47.1970 121.8870 15.08864071 27101,6917.807,95.436,540.789,538.555,0.0
50194.0,STARLINK-3269,PAYLOAD,2022-05-24 11:36:48,15.08843539,0.0001798,53.2161,337.545,51.7918,308.3236,7.4973e-05,9.05e-06,0.0,0 STARLINK-3269,1 50194U 21125AQ  22144.48389053  .00000905  00000-0  74973-4 0  9991,2 50194  53.2161 337.5450 0001798  51.7918 308.3236 15.08843539 27664,6917.87,95.437,540.9780000000002,538.491,0.0
50194.0,STARLINK-3269,PAYLOAD,2022-05-24 22:00:00,15.08804795,0.0001773,53.2161,335.6038,45.0439,147.1848,0.0018057,0.00028539,0.0,0 STARLINK-3269,1 50194U 21125AQ  22144.91667824  .00028539  00000-0  18057-2 0  9996,2 50194  53.2161 335.6038 0001773  45.0439 147.1848 15.08804795  1304,6917.988,95.44,541.08,538.626,0.0
50194.0,STARLINK-3269,PAYLOAD,2022-05-25 06:00:00,15.08832781,0.0001635,53.216,334.1059,48.3491,155.4478,-0.0027277,-0.0004343,0.0,0 STARLINK-3269,1 50194U 21125AQ  22145.25001157 -.00043430  00000-0 -27277-2 0  9998,2 50194  53.2160 334.1059 0001635  48.3491 155.4478 15.08832781 27250,6917.901999999999,95.438,540.899,538.636,0.0
50194.0,STARLINK-3269,PAYLOAD,2022-05-25 14:00:01,15.08820565,0.0001655,53.2162,332.6095,53.7856,161.5756,0.00043385,6.620000000000001e-05,0.0,0 STARLINK-3269,1 50194U 21125AQ  22145.58334491  .00006620  00000-0  43385-3 0  9991,2 50194  53.2162 332.6095 0001655  53.7856 161.5756 15.08820565  1304,6917.94,95.439,540.95,538.66,0.0
50194.0,STARLINK-3269,PAYLOAD,2022-05-25 19:24:32,15.08829917,0.0001665,53.2166,331.5961,47.4057,312.7076,-0.00014403,-2.579e-05,0.0,0 STARLINK-3269,1 50194U 21125AQ  22145.80870782 -.00002579  00000-0 -14403-3 0  9994,2 50194  53.2166 331.5961 0001665  47.4057 312.7076 15.08829917 27338,6917.911,95.438,540.928,538.624,0.0
50194.0,STARLINK-3269,PAYLOAD,2022-05-26 04:56:50,15.08833201,0.0001754,53.2167,329.8124,50.933,309.1818,-5.797100000000001e-05,-1.21e-05,0.0,0 STARLINK-3269,1 50194U 21125AQ  22146.20614495 -.00001210  00000-0 -57971-4 0  9995,2 50194  53.2167 329.8124 0001754  50.9330 309.1818 15.08833201 27922,6917.901,95.438,540.98,538.553,0.0
